ONEWEB-0668             
1 56711U 23068B   26002.98353839 -.00000052  00000+0 -16891-3 0  9993
2 56711  87.9053 261.6523 0001258  95.0432 265.0843 13.16592876130042
ONEWEB-0676             
1 56712U 23068C   26002.99144479  .00000118  00000+0  27387-3 0  9996
2 56712  87.9041 261.6706 0001776  75.4391 284.6937 13.16597186129963
ONEWEB-0677             
1 56713U 23068D   26002.88540986 -.00000179  00000+0 -47281-3 0  9992
2 56713  87.9228 307.4057 0001815  82.2217 277.9122 13.20771098127988
ONEWEB-0678             
1 56714U 23068E   26002.81136143  .00000001  00000+0 -30354-4 0  9999
2 56714  87.9014 292.1887 0001749  67.1566 292.9749 13.15548451127541
ONEWEB-0679             
1 56715U 23068F   26002.72229838  .00000032  00000+0  50969-4 0  9991
2 56715  87.9040 261.7070 0001749  93.4435 266.6896 13.16593281129954
ONEWEB-0680             
1 56716U 23068G   26002.77571769  .00000059  00000+0  11225-3 0  9990
2 56716  87.9231 276.9552 0001516 100.2340 259.8965 13.21827627129247
ONEWEB-0681             
1 56717U 23068H   26002.98224508  .00000108  00000+0  22941-3 0  9992
2 56717  87.9221 276.9281 0002671  76.0370 284.1061 13.21827686129267
ONEWEB-0682             
1 56718U 23068J   26002.83750653 -.00000027  00000+0 -10621-3 0  9996
2 56718  87.9004 292.1961 0001605  92.6564 267.4750 13.15549351127717
